     2.100          NAVIGATION                              RINEX VERSION / TYPE
fic2rin                                 01/10/2018 00:16:04 PGM / RUN BY / DATE
                                                            END OF HEADER
23 18  1  9 18  0  0.0 -.219078268856D-03  .000000000000D+00  .000000000000D+00
     .130000000000D+02  .173437500000D+02  .497663586829D-08  .188216194557D+01
     .897794961929D-06  .118873560568D-01  .109318643808D-04  .515362051582D+04
     .237600000000D+06 -.309199094772D-06  .183454863026D+01 -.447034835815D-07
     .943432302725D+00  .163687500000D+03 -.240537121142D+01 -.821391357104D-08
    -.821462788651D-10  .100000000000D+01  .198300000000D+04  .000000000000D+00
     .240000000000D+01  .000000000000D+00 -.200234353542D-07  .130000000000D+02
     .230406000000D+06  .400000000000D+01
25 18  1  9 18  0  0.0 -.519630964845D-03 -.613908923697D-11  .000000000000D+00
     .900000000000D+01 -.147812500000D+02  .432017995284D-08 -.645148992725D+00
    -.827014446259D-06  .695796729997D-02  .545009970665D-05  .515370159531D+04
     .237600000000D+06  .149011611938D-07 -.233917900328D+01  .143423676491D-06
     .975559957222D+00  .280750000000D+03  .804164344856D+00 -.817534053575D-08
    -.282868925483D-09  .100000000000D+01  .198300000000D+04  .000000000000D+00
     .240000000000D+01  .000000000000D+00  .558793544769D-08  .900000000000D+01
     .230406000000D+06  .400000000000D+01
26 18  1  9 18  0  0.0 -.293577089906D-03  .139834810398D-10  .000000000000D+00
     .860000000000D+02 -.180000000000D+02  .464412201775D-08 -.112444490448D+01
    -.949949026108D-06  .252083363011D-02  .554323196411D-05  .515359034348D+04
     .237600000000D+06 -.372529029846D-07 -.235865158692D+01 -.223517417908D-07
     .957194676760D+00  .271531250000D+03 -.378271292061D-01 -.828427364468D-08
    -.253581991279D-09  .100000000000D+01  .198300000000D+04  .000000000000D+00
     .240000000000D+01  .000000000000D+00  .745058059692D-08  .860000000000D+02
     .230406000000D+06  .400000000000D+01
27 18  1  9 18  0  0.0  .361599959433D-03  .216004991671D-11  .000000000000D+00
     .620000000000D+02 -.213750000000D+02  .391159150492D-08 -.297344183010D+01
    -.107847154140D-05  .528770324308D-02  .944361090660D-05  .515368187141D+04
     .237600000000D+06 -.111758708954D-07 -.129924837427D+01 -.931322574615D-08
     .976438050393D+00  .206406250000D+03  .351726469425D+00 -.778175271266D-08
     .127505311108D-09  .100000000000D+01  .198300000000D+04  .000000000000D+00
     .240000000000D+01  .000000000000D+00  .186264514923D-08  .620000000000D+02
     .230406000000D+06  .400000000000D+01
28 18  1  9 18  0  0.0  .678374897689D-03  .341060513165D-11  .000000000000D+00
     .105000000000D+03 -.182187500000D+02  .385051753237D-08 -.215261700612D+01
    -.782310962677D-06  .199028429342D-01  .538676977158D-05  .515367029953D+04
     .237600000000D+06  .363215804100D-06 -.225787480603D+01  .149011611938D-06
     .987065455352D+00  .287500000000D+03 -.153437623073D+01 -.763781814578D-08
    -.257153568621D-09  .100000000000D+01  .198300000000D+04  .000000000000D+00
     .485000000000D+01  .000000000000D+00 -.111758708954D-07  .105000000000D+03
     .230406000000D+06  .400000000000D+01
29 18  1  9 18  0  0.0  .513491686434D-03 -.534328137292D-11  .000000000000D+00
     .570000000000D+02 -.169687500000D+02  .389444793367D-08 -.163721314992D+01
    -.879168510437D-06  .424448284321D-03  .871717929840D-05  .515375417709D+04
     .237600000000D+06  .130385160446D-07 -.123553806517D+01 -.540167093277D-07
     .982873203197D+00  .224906250000D+03  .769109192325D+00 -.776853787650D-08
     .471448209139D-10  .100000000000D+01  .198300000000D+04  .000000000000D+00
     .240000000000D+01  .000000000000D+00 -.102445483208D-07  .570000000000D+02
     .230406000000D+06  .400000000000D+01
31 18  1  9 18  0  0.0  .149771571159D-03 -.261479726760D-11  .000000000000D+00
     .640000000000D+02  .583437500000D+02  .465233664564D-08  .171579733773D+00
     .296346843243D-05  .884337897878D-02  .587105751038D-05  .515358676529D+04
     .237600000000D+06  .134110450745D-06  .292486531782D+01 -.745058059692D-07
     .964882441467D+00  .267406250000D+03 -.178471817336D+00 -.832713257278D-08
     .178578867098D-11  .100000000000D+01  .198300000000D+04  .000000000000D+00
     .240000000000D+01  .000000000000D+00 -.135041773319D-07  .640000000000D+02
     .230406000000D+06  .400000000000D+01
32 18  1  9 18  0  0.0 -.532562844455D-03 -.682121026330D-12  .000000000000D+00
     .770000000000D+02  .255937500000D+02  .458054794106D-08 -.224893433287D+01
     .137835741043D-05  .155670545064D-02  .102967023849D-04  .515362478065D+04
     .237600000000D+06  .130385160446D-07  .183917706460D+01 -.260770320892D-07
     .957018487296D+00  .178656250000D+03 -.269422092491D+01 -.795354558281D-08
    -.753602819154D-10  .100000000000D+01  .198300000000D+04  .000000000000D+00
     .240000000000D+01  .000000000000D+00  .465661287308D-09  .770000000000D+02
     .230406000000D+06  .400000000000D+01
22 18  1  9 17 59 44.0 -.251253135502D-03 -.129602995003D-10  .000000000000D+00
     .130000000000D+02 -.438437500000D+02  .561487673930D-08  .257531513507D+01
    -.237300992012D-05  .718321010936D-02  .685080885887D-05  .515361949730D+04
     .237584000000D+06  .121071934700D-06  .745515144212D+00 -.316649675369D-07
     .924480814897D+00  .229531250000D+03 -.163097472448D+01 -.844428030960D-08
    -.107147320259D-09  .100000000000D+01  .198300000000D+04  .000000000000D+00
     .240000000000D+01  .000000000000D+00 -.176951289177D-07  .130000000000D+02
     .230706000000D+06  .400000000000D+01
28 18  1  9 17 59 44.0  .678374897689D-03  .341060513165D-11  .000000000000D+00
     .000000000000D+00 -.182187500000D+02  .385051753237D-08 -.215495058428D+01
    -.782310962677D-06  .199028409552D-01  .538676977158D-05  .515367029953D+04
     .237584000000D+06  .363215804100D-06 -.225787467144D+01  .149011611938D-06
     .987065446575D+00  .287500000000D+03 -.153437633460D+01 -.763781814578D-08
    -.257153568621D-09  .100000000000D+01  .198300000000D+04  .000000000000D+00
     .240000000000D+01  .000000000000D+00 -.111758708954D-07  .000000000000D+00
     .234456000000D+06  .400000000000D+01
 2 18  1  9 17 59 44.0  .232724007219D-03 -.102318153949D-10  .000000000000D+00
     .400000000000D+01 -.123125000000D+02  .484877339945D-08  .145746285921D+01
    -.767409801483D-06  .176122826524D-01  .719167292118D-05  .515365947914D+04
     .237584000000D+06 -.424683094025D-06 -.300598679222D+00 -.253319740295D-06
     .949099141195D+00  .236000000000D+03 -.191515944676D+01 -.841570769086D-08
     .331442377334D-09  .100000000000D+01  .198300000000D+04  .000000000000D+00
     .240000000000D+01  .000000000000D+00 -.204890966415D-07  .400000000000D+01
     .234696000000D+06  .400000000000D+01
 2 18  1  9 19 59 44.0  .232650432736D-03 -.102318153949D-10  .000000000000D+00
     .500000000000D+01 -.116875000000D+02  .462733560424D-08  .250768264458D+01
    -.692903995514D-06  .176124380669D-01  .707805156708D-05  .515365849686D+04
     .244784000000D+06  .126659870148D-06 -.300656991136D+00 -.223517417908D-06
     .949103957121D+00  .232250000000D+03 -.191518789028D+01 -.788354266691D-08
     .325370695853D-09  .100000000000D+01  .198300000000D+04  .000000000000D+00
     .240000000000D+01  .000000000000D+00 -.204890966415D-07  .500000000000D+01
     .237606000000D+06  .400000000000D+01
28 18  1  9 19 59 44.0  .678399577737D-03  .341060513165D-11  .000000000000D+00
     .150000000000D+02 -.187500000000D+02  .415517307964D-08 -.110482462756D+01
    -.767409801483D-06  .199028027710D-01  .610388815403D-05  .515366829491D+04
     .244784000000D+06 -.286847352982D-06 -.225793169745D+01  .277534127235D-06
     .987060496060D+00  .279781250000D+03 -.153432275230D+01 -.827891627867D-08
    -.282511767749D-09  .100000000000D+01  .198300000000D+04  .000000000000D+00
     .240000000000D+01  .000000000000D+00 -.111758708954D-07  .150000000000D+02
     .237606000000D+06  .400000000000D+01
 1 18  1  9 20  0  0.0 -.227494165301D-04 -.181898940355D-11  .000000000000D+00
     .180000000000D+02 -.531250000000D+01  .439339728835D-08  .210152293618D+01
    -.257045030594D-06  .722718995530D-02  .682659447193D-05  .515367414284D+04
     .244800000000D+06 -.126659870148D-06 -.242465496598D+00 -.689178705215D-07
     .970099084452D+00  .252406250000D+03  .621179523261D+00 -.804533512050D-08
     .346085844436D-09  .100000000000D+01  .198300000000D+04  .000000000000D+00
     .240000000000D+01  .000000000000D+00  .558793544769D-08  .180000000000D+02
     .237606000000D+06  .400000000000D+01
 3 18  1  9 20  0  0.0 -.127581879497D-04  .659383658785D-11  .000000000000D+00
     .950000000000D+02 -.376250000000D+02  .472841124302D-08  .108540601828D+01
    -.217556953430D-05  .117918138858D-02  .743567943573D-05  .515357896614D+04
     .244800000000D+06  .409781932831D-07  .799905168587D+00  .484287738800D-07
     .960483609186D+00  .235125000000D+03  .563936905184D+00 -.815069665209D-08
    -.992898501065D-10  .100000000000D+01  .198300000000D+04  .000000000000D+00
     .240000000000D+01  .000000000000D+00  .232830643654D-08  .950000000000D+02
     .237606000000D+06  .400000000000D+01
 4 18  1  9 20  0  0.0  .313706696033D-04  .204636307899D-11  .000000000000D+00
     .560000000000D+02 -.153125000000D+02  .549558605608D-08 -.766380225441D+00
    -.808387994766D-06  .936685723718D-02  .545196235180D-05  .515366580200D+04
     .244800000000D+06  .372529029846D-08 -.231493124876D+01  .191852450371D-06
     .980359731461D+00  .283031250000D+03  .893010352940D+00 -.814676791701D-08
    -.295726603914D-09  .100000000000D+01  .198300000000D+04  .000000000000D+00
     .485000000000D+01  .630000000000D+02 -.195577740669D-07  .560000000000D+02
     .237606000000D+06  .400000000000D+01
